{
    "type": "FeatureCollection",
    "features": [
        {
            "type": "Feature",
            "properties": {
                "id": 1,
                "name": "Invalid Polygon - Self Intersecting",
                "type": "building"
            },
            "geometry": {
                "type": "Polygon",
                "coordinates": [
                    [
                        [
                            13.404954,
                            52.520008
                        ],
                        [
                            13.405954,
                            52.521008
                        ],
                        [
                            13.405954,
                            52.520008
                        ],
                        [
                            13.404954,
                            52.521008
                        ],
                        [
                            13.404954,
                            52.520008
                        ]
                    ]
                ]
            }
        },
        {
            "type": "Feature",
            "properties": {
                "id": 2,
                "name": "Tiny Polygon - Below Minimum Area",
                "type": "building"
            },
            "geometry": {
                "type": "Polygon",
                "coordinates": [
                    [
                        [
                            13.406954,
                            52.520008
                        ],
                        [
                            13.406955,
                            52.520008
                        ],
                        [
                            13.406955,
                            52.520009
                        ],
                        [
                            13.406954,
                            52.520009
                        ],
                        [
                            13.406954,
                            52.520008
                        ]
                    ]
                ]
            }
        },
        {
            "type": "Feature",
            "properties": {
                "id": 3,
                "name": "Excessive Precision Coordinates",
                "type": "area"
            },
            "geometry": {
                "type": "Polygon",
                "coordinates": [
                    [
                        [
                            13.40495412345678,
                            52.52000812345678
                        ],
                        [
                            13.40595412345678,
                            52.52000812345678
                        ],
                        [
                            13.40595412345678,
                            52.52100812345678
                        ],
                        [
                            13.40495412345678,
                            52.52100812345678
                        ],
                        [
                            13.40495412345678,
                            52.52000812345678
                        ]
                    ]
                ]
            }
        },
        {
            "type": "Feature",
            "properties": {
                "id": 4,
                "name": "Unclosed Polygon",
                "type": "building"
            },
            "geometry": {
                "type": "Polygon",
                "coordinates": [
                    [
                        [
                            13.408954,
                            52.520008
                        ],
                        [
                            13.409954,
                            52.520008
                        ],
                        [
                            13.409954,
                            52.521008
                        ],
                        [
                            13.408954,
                            52.521008
                        ]
                    ]
                ]
            }
        },
        {
            "type": "Feature",
            "properties": {
                "id": 5,
                "name": "Anomalous Shape - Very Complex",
                "type": "building"
            },
            "geometry": {
                "type": "Polygon",
                "coordinates": [
                    [
                        [
                            13.410954,
                            52.520008
                        ],
                        [
                            13.411954,
                            52.520008
                        ],
                        [
                            13.411954,
                            52.520208
                        ],
                        [
                            13.411754,
                            52.520208
                        ],
                        [
                            13.411754,
                            52.520408
                        ],
                        [
                            13.411954,
                            52.520408
                        ],
                        [
                            13.411954,
                            52.520608
                        ],
                        [
                            13.411754,
                            52.520608
                        ],
                        [
                            13.411754,
                            52.520808
                        ],
                        [
                            13.411954,
                            52.520808
                        ],
                        [
                            13.411954,
                            52.521008
                        ],
                        [
                            13.410954,
                            52.521008
                        ],
                        [
                            13.410954,
                            52.520008
                        ]
                    ]
                ]
            }
        }
    ]
}